STARLINK-34505          
1 64490U 25133U   26080.94480254  .00041946  00000+0  14187-2 0  9995
2 64490  53.1607  59.9450 0001301 101.1429 258.9719 15.30237738 43043
STARLINK-34530          
1 64491U 25133V   26080.94163746  .00039254  00000+0  13289-2 0  9991
2 64491  53.1600  59.9237 0002416  98.4238 261.7037 15.30236259 43046
STARLINK-34522          
1 64492U 25133W   26080.93847189  .00032156  00000+0  10920-2 0  9994
2 64492  53.1603  59.9050 0002219  94.7646 265.3609 15.30232586 43062
STARLINK-34462          
1 64493U 25133X   26080.93530545  .00030202  00000+0  10270-2 0  9998
2 64493  53.1607  59.8852 0001713 102.1894 257.9298 15.30221757 43062
STARLINK-34226          
1 64494U 25133Y   26080.93214078  .00025523  00000+0  87017-3 0  9993
2 64494  53.1611  59.8659 0002290  91.8281 268.2983 15.30226016 42897
STARLINK-34364          
1 64495U 25133Z   26080.93055183  .00034397  00000+0  11669-2 0  9992
2 64495  53.1607  57.7017 0002040  93.8079 266.3155 15.30231824 43094
STARLINK-34268          
1 64496U 25133AA  26080.66877812  .00034919  00000+0  11854-2 0  9990
2 64496  53.1610  61.0650 0001469  88.3596 271.7573 15.30204365 43024
STARLINK-34363          
1 64497U 25133AB  26080.92474996  .00021930  00000+0  74984-3 0  9999
2 64497  53.1618  59.8175 0001357 103.9568 256.1583 15.30222560 43068
STARLINK-34427          
1 64498U 25133AC  26080.66033413  .00035070  00000+0  11887-2 0  9998
2 64498  53.1616  61.0118 0001930  86.7263 273.3958 15.30251282 43022
STARLINK-34280          
1 64594U 25137A   26080.82900384  .00035015  00000+0  11888-2 0  9997
2 64594  53.1576 278.8438 0001227  86.2809 273.8332 15.30199950 42592
STARLINK-34517          
1 64595U 25137B   26080.84801397  .00024556  00000+0  83933-3 0  9993
2 64595  53.1556 278.9580 0000963 103.9713 256.1395 15.30166761 42594
STARLINK-34510          
1 64596U 25137C   26080.84272209  .00047799  00000+0  16162-2 0  9991
2 64596  53.1560 278.9266 0001116  91.7828 268.3301 15.30187453 42596
STARLINK-34486          
1 64597U 25137D   26080.86698946  .00017022  00000+0  58546-3 0  9993
2 64597  53.1589 279.0731 0001133  76.4046 283.7081 15.30202495 42598
STARLINK-34463          
1 64598U 25137E   26080.92491819  .00031702  00000+0  10775-2 0  9993
2 64598  53.1573 278.7236 0001242  73.3860 286.7277 15.30211988 42608
STARLINK-34294          
1 64599U 25137F   26080.84377352  .00020075  00000+0  68816-3 0  9991
2 64599  53.1567 278.9315 0001114  83.0764 277.0364 15.30197000 42597
STARLINK-34504          
1 64600U 25137G   26080.93019678  .00015739  00000+0  54208-3 0  9999
2 64600  53.1580 278.7618 0001250  65.5563 294.5568 15.30217904 42600
