[{"OBJECT_NAME":"STARLINK-34505","OBJECT_ID":"2025-133U","EPOCH":"2026-03-21T22:40:30.939456","MEAN_MOTION":15.30237738,"ECCENTRICITY":0.00013013,"INCLINATION":53.1607,"RA_OF_ASC_NODE":59.945,"ARG_OF_PERICENTER":101.1429,"MEAN_ANOMALY":258.9719,"EPHEMERIS_TYPE":0,"CLASSIFICATION_TYPE":"U","NORAD_CAT_ID":64490,"ELEMENT_SET_NO":999,"REV_AT_EPOCH":4304,"BSTAR":0.0014187252,"MEAN_MOTION_DOT":0.00041946,"MEAN_MOTION_DDOT":0},{"OBJECT_NAME":"STARLINK-34530","OBJECT_ID":"2025-133V","EPOCH":"2026-03-21T22:35:57.476544","MEAN_MOTION":15.30236259,"ECCENTRICITY":0.00024166,"INCLINATION":53.16,"RA_OF_ASC_NODE":59.9237,"ARG_OF_PERICENTER":98.4238,"MEAN_ANOMALY":261.7037,"EPHEMERIS_TYPE":0,"CLASSIFICATION_TYPE":"U","NORAD_CAT_ID":64491,"ELEMENT_SET_NO":999,"REV_AT_EPOCH":4304,"BSTAR":0.0013289263,"MEAN_MOTION_DOT":0.00039254,"MEAN_MOTION_DDOT":0},{"OBJECT_NAME":"STARLINK-34522","OBJECT_ID":"2025-133W","EPOCH":"2026-03-21T22:31:23.971296","MEAN_MOTION":15.30232586,"ECCENTRICITY":0.00022193,"INCLINATION":53.1603,"RA_OF_ASC_NODE":59.905,"ARG_OF_PERICENTER":94.7646,"MEAN_ANOMALY":265.3609,"EPHEMERIS_TYPE":0,"CLASSIFICATION_TYPE":"U","NORAD_CAT_ID":64492,"ELEMENT_SET_NO":999,"REV_AT_EPOCH":4306,"BSTAR":0.0010920001,"MEAN_MOTION_DOT":0.00032156,"MEAN_MOTION_DDOT":0},{"OBJECT_NAME":"STARLINK-34462","OBJECT_ID":"2025-133X","EPOCH":"2026-03-21T22:26:50.390880","MEAN_MOTION":15.30221757,"ECCENTRICITY":0.00017139,"INCLINATION":53.1607,"RA_OF_ASC_NODE":59.8852,"ARG_OF_PERICENTER":102.1894,"MEAN_ANOMALY":257.9298,"EPHEMERIS_TYPE":0,"CLASSIFICATION_TYPE":"U","NORAD_CAT_ID":64493,"ELEMENT_SET_NO":999,"REV_AT_EPOCH":4306,"BSTAR":0.0010270003,"MEAN_MOTION_DOT":0.00030202,"MEAN_MOTION_DDOT":0},{"OBJECT_NAME":"STARLINK-34226","OBJECT_ID":"2025-133Y","EPOCH":"2026-03-21T22:22:16.963392","MEAN_MOTION":15.30226016,"ECCENTRICITY":0.00022905,"INCLINATION":53.1611,"RA_OF_ASC_NODE":59.8659,"ARG_OF_PERICENTER":91.8281,"MEAN_ANOMALY":268.2983,"EPHEMERIS_TYPE":0,"CLASSIFICATION_TYPE":"U","NORAD_CAT_ID":64494,"ELEMENT_SET_NO":999,"REV_AT_EPOCH":4289,"BSTAR":0.00087016939,"MEAN_MOTION_DOT":0.00025523,"MEAN_MOTION_DDOT":0},{"OBJECT_NAME":"STARLINK-34364","OBJECT_ID":"2025-133Z","EPOCH":"2026-03-21T22:19:59.678112","MEAN_MOTION":15.30231824,"ECCENTRICITY":0.00020406,"INCLINATION":53.1607,"RA_OF_ASC_NODE":57.7017,"ARG_OF_PERICENTER":93.8079,"MEAN_ANOMALY":266.3155,"EPHEMERIS_TYPE":0,"CLASSIFICATION_TYPE":"U","NORAD_CAT_ID":64495,"ELEMENT_SET_NO":999,"REV_AT_EPOCH":4309,"BSTAR":0.0011669483,"MEAN_MOTION_DOT":0.00034397,"MEAN_MOTION_DDOT":0},{"OBJECT_NAME":"STARLINK-34268","OBJECT_ID":"2025-133AA","EPOCH":"2026-03-21T16:03:02.429568","MEAN_MOTION":15.30204365,"ECCENTRICITY":0.00014692,"INCLINATION":53.161,"RA_OF_ASC_NODE":61.065,"ARG_OF_PERICENTER":88.3596,"MEAN_ANOMALY":271.7573,"EPHEMERIS_TYPE":0,"CLASSIFICATION_TYPE":"U","NORAD_CAT_ID":64496,"ELEMENT_SET_NO":999,"REV_AT_EPOCH":4302,"BSTAR":0.0011853957,"MEAN_MOTION_DOT":0.00034919,"MEAN_MOTION_DDOT":0},{"OBJECT_NAME":"STARLINK-34363","OBJECT_ID":"2025-133AB","EPOCH":"2026-03-21T22:11:38.396544","MEAN_MOTION":15.3022256,"ECCENTRICITY":0.00013573,"INCLINATION":53.1618,"RA_OF_ASC_NODE":59.8175,"ARG_OF_PERICENTER":103.9568,"MEAN_ANOMALY":256.1583,"EPHEMERIS_TYPE":0,"CLASSIFICATION_TYPE":"U","NORAD_CAT_ID":64497,"ELEMENT_SET_NO":999,"REV_AT_EPOCH":4306,"BSTAR":0.00074984479,"MEAN_MOTION_DOT":0.0002193,"MEAN_MOTION_DDOT":0},{"OBJECT_NAME":"STARLINK-34427","OBJECT_ID":"2025-133AC","EPOCH":"2026-03-21T15:50:52.868832","MEAN_MOTION":15.30251282,"ECCENTRICITY":0.00019307,"INCLINATION":53.1616,"RA_OF_ASC_NODE":61.0118,"ARG_OF_PERICENTER":86.7263,"MEAN_ANOMALY":273.3958,"EPHEMERIS_TYPE":0,"CLASSIFICATION_TYPE":"U","NORAD_CAT_ID":64498,"ELEMENT_SET_NO":999,"REV_AT_EPOCH":4302,"BSTAR":0.0011887322,"MEAN_MOTION_DOT":0.0003507,"MEAN_MOTION_DDOT":0},{"OBJECT_NAME":"STARLINK-34280","OBJECT_ID":"2025-137A","EPOCH":"2026-03-21T19:53:45.931776","MEAN_MOTION":15.3019995,"ECCENTRICITY":0.00012275,"INCLINATION":53.1576,"RA_OF_ASC_NODE":278.8438,"ARG_OF_PERICENTER":86.2809,"MEAN_ANOMALY":273.8332,"EPHEMERIS_TYPE":0,"CLASSIFICATION_TYPE":"U","NORAD_CAT_ID":64594,"ELEMENT_SET_NO":999,"REV_AT_EPOCH":4259,"BSTAR":0.001188771,"MEAN_MOTION_DOT":0.00035015,"MEAN_MOTION_DDOT":0},{"OBJECT_NAME":"STARLINK-34517","OBJECT_ID":"2025-137B","EPOCH":"2026-03-21T20:21:08.407008","MEAN_MOTION":15.30166761,"ECCENTRICITY":9.635e-5,"INCLINATION":53.1556,"RA_OF_ASC_NODE":278.958,"ARG_OF_PERICENTER":103.9713,"MEAN_ANOMALY":256.1395,"EPHEMERIS_TYPE":0,"CLASSIFICATION_TYPE":"U","NORAD_CAT_ID":64595,"ELEMENT_SET_NO":999,"REV_AT_EPOCH":4259,"BSTAR":0.00083933389,"MEAN_MOTION_DOT":0.00024556,"MEAN_MOTION_DDOT":0},{"OBJECT_NAME":"STARLINK-34510","OBJECT_ID":"2025-137C","EPOCH":"2026-03-21T20:13:31.188576","MEAN_MOTION":15.30187453,"ECCENTRICITY":0.00011163,"INCLINATION":53.156,"RA_OF_ASC_NODE":278.9266,"ARG_OF_PERICENTER":91.7828,"MEAN_ANOMALY":268.3301,"EPHEMERIS_TYPE":0,"CLASSIFICATION_TYPE":"U","NORAD_CAT_ID":64596,"ELEMENT_SET_NO":999,"REV_AT_EPOCH":4259,"BSTAR":0.0016162457,"MEAN_MOTION_DOT":0.00047799,"MEAN_MOTION_DDOT":0},{"OBJECT_NAME":"STARLINK-34486","OBJECT_ID":"2025-137D","EPOCH":"2026-03-21T20:48:27.889344","MEAN_MOTION":15.30202495,"ECCENTRICITY":0.00011336,"INCLINATION":53.1589,"RA_OF_ASC_NODE":279.0731,"ARG_OF_PERICENTER":76.4046,"MEAN_ANOMALY":283.7081,"EPHEMERIS_TYPE":0,"CLASSIFICATION_TYPE":"U","NORAD_CAT_ID":64597,"ELEMENT_SET_NO":999,"REV_AT_EPOCH":4259,"BSTAR":0.00058546412,"MEAN_MOTION_DOT":0.00017022,"MEAN_MOTION_DDOT":0},{"OBJECT_NAME":"STARLINK-34463","OBJECT_ID":"2025-137E","EPOCH":"2026-03-21T22:11:52.931616","MEAN_MOTION":15.30211988,"ECCENTRICITY":0.00012421,"INCLINATION":53.1573,"RA_OF_ASC_NODE":278.7236,"ARG_OF_PERICENTER":73.386,"MEAN_ANOMALY":286.7277,"EPHEMERIS_TYPE":0,"CLASSIFICATION_TYPE":"U","NORAD_CAT_ID":64598,"ELEMENT_SET_NO":999,"REV_AT_EPOCH":4260,"BSTAR":0.00107751,"MEAN_MOTION_DOT":0.00031702,"MEAN_MOTION_DDOT":0},{"OBJECT_NAME":"STARLINK-34294","OBJECT_ID":"2025-137F","EPOCH":"2026-03-21T20:15:02.032128","MEAN_MOTION":15.30197,"ECCENTRICITY":0.00011148,"INCLINATION":53.1567,"RA_OF_ASC_NODE":278.9315,"ARG_OF_PERICENTER":83.0764,"MEAN_ANOMALY":277.0364,"EPHEMERIS_TYPE":0,"CLASSIFICATION_TYPE":"U","NORAD_CAT_ID":64599,"ELEMENT_SET_NO":999,"REV_AT_EPOCH":4259,"BSTAR":0.00068815711,"MEAN_MOTION_DOT":0.00020075,"MEAN_MOTION_DDOT":0},{"OBJECT_NAME":"STARLINK-34504","OBJECT_ID":"2025-137G","EPOCH":"2026-03-21T22:19:29.001792","MEAN_MOTION":15.30217904,"ECCENTRICITY":0.00012505,"INCLINATION":53.158,"RA_OF_ASC_NODE":278.7618,"ARG_OF_PERICENTER":65.5563,"MEAN_ANOMALY":294.5568,"EPHEMERIS_TYPE":0,"CLASSIFICATION_TYPE":"U","NORAD_CAT_ID":64600,"ELEMENT_SET_NO":999,"REV_AT_EPOCH":4260,"BSTAR":0.00054208374,"MEAN_MOTION_DOT":0.00015739,"MEAN_MOTION_DDOT":0}]
